[ {"spaceTrack": {"CCSDS_OMM_VERS": "2.0", "COMMENT": "GENERATED VIA SPACE-TRACK.ORG API", "CREATION_DATE": "2020-08-23 22:36:09", "ORIGINATOR": "18 SPCS", "OBJECT_NAME": "STARLINK-1552", "OBJECT_ID": "2020-055BB", "CENTER_NAME": "EARTH", "REF_FRAME": "TEME", "TIME_SYSTEM": "UTC", "MEAN_ELEMENT_THEORY": "SGP4", "EPOCH": "2020-08-23 22:00:00.999936", "MEAN_MOTION": 15.62711207, "ECCENTRICITY": 0.0008324, "INCLINATION": 52.9994, "RA_OF_ASC_NODE": 209.7887, "ARG_OF_PERICENTER": 287.1198, "MEAN_ANOMALY": 15.9409, "EPHEMERIS_TYPE": 0, "CLASSIFICATION_TYPE": "U", "NORAD_CAT_ID": 46076, "ELEMENT_SET_NO": 999, "REV_AT_EPOCH": 335, "BSTAR": 0.00037488, "MEAN_MOTION_DOT": 0.00033927, "MEAN_MOTION_DDOT": 0, "SEMIMAJOR_AXIS": 6757.966, "PERIOD": 92.147, "APOAPSIS": 385.456, "PERIAPSIS": 374.205, "OBJECT_TYPE": "PAYLOAD", "RCS_SIZE": "LARGE", "COUNTRY_CODE": "US", "LAUNCH_DATE": "2020-08-07", "SITE": "AFETR", "DECAY_DATE": null, "DECAYED": 0, "FILE": 2807285, "GP_ID": 159986666, "TLE_LINE0": "0 STARLINK-1552", "TLE_LINE1": "1 46076U 20055BB  20236.91667824  .00033927  00000-0  37488-3 0  9998", "TLE_LINE2": "2 46076  52.9994 209.7887 0008324 287.1198  15.9409 15.62711207  3358"}, "version": "v1.0", "launch": "5ed9819a1f30554030d45c29", "longitude": -147.78824622250164, "latitude": -34.280996315232436, "height_km": 385.65629184307, "velocity_kms": 7.681240708865712, "id": "5f36cb5abd888300062740e2"}, {"spaceTrack": {"CCSDS_OMM_VERS": "2.0", "COMMENT": "GENERATED VIA SPACE-TRACK.ORG API", "CREATION_DATE": "2020-08-23 22:46:10", "ORIGINATOR": "18 SPCS", "OBJECT_NAME": "STARLINK-1563", "OBJECT_ID": "2020-055BD", "CENTER_NAME": "EARTH", "REF_FRAME": "TEME", "TIME_SYSTEM": "UTC", "MEAN_ELEMENT_THEORY": "SGP4", "EPOCH": "2020-08-23 22:00:00.999936", "MEAN_MOTION": 15.62682169, "ECCENTRICITY": 0.0009257, "INCLINATION": 52.9999, "RA_OF_ASC_NODE": 209.8414, "ARG_OF_PERICENTER": 308.3613, "MEAN_ANOMALY": 337.1096, "EPHEMERIS_TYPE": 0, "CLASSIFICATION_TYPE": "U", "NORAD_CAT_ID": 46078, "ELEMENT_SET_NO": 999, "REV_AT_EPOCH": 335, "BSTAR": -0.00061974, "MEAN_MOTION_DOT": -0.0005687, "MEAN_MOTION_DDOT": 0, "SEMIMAJOR_AXIS": 6758.05, "PERIOD": 92.149, "APOAPSIS": 386.17, "PERIAPSIS": 373.659, "OBJECT_TYPE": "PAYLOAD", "RCS_SIZE": "LARGE", "COUNTRY_CODE": "US", "LAUNCH_DATE": "2020-08-07", "SITE": "AFETR", "DECAY_DATE": null, "DECAYED": 0, "FILE": 2807289, "GP_ID": 159986768, "TLE_LINE0": "0 STARLINK-1563", "TLE_LINE1": "1 46078U 20055BD  20236.91667824 -.00056870  00000-0 -61974-3 0  9991", "TLE_LINE2": "2 46078  52.9999 209.8414 0009257 308.3613 337.1096 15.62682169  3351"}, "version": "v1.0", "launch": "5ed9819a1f30554030d45c29", "longitude": -165.92206279849128, "latitude": -45.1638681936034, "height_km": 389.0409681776673, "velocity_kms": 7.679906763029634, "id": "5f36cb5abd888300062740e7"}]